[{"OBJECT_NAME":"STARLINK-5716","OBJECT_ID":"2023-065B","EPOCH":"2026-03-09T22:00:01.999584","MEAN_MOTION":15.07759003,"ECCENTRICITY":0.0001791,"INCLINATION":42.9991,"RA_OF_ASC_NODE":209.3447,"ARG_OF_PERICENTER":287.1084,"MEAN_ANOMALY":163.1448,"EPHEMERIS_TYPE":0,"CLASSIFICATION_TYPE":"U","NORAD_CAT_ID":56504,"ELEMENT_SET_NO":999,"REV_AT_EPOCH":578,"BSTAR":0.0045323262,"MEAN_MOTION_DOT":0.00070952,"MEAN_MOTION_DDOT":0},{"OBJECT_NAME":"SL-24 PLAT","OBJECT_ID":"2014-033AR","EPOCH":"2026-03-09T22:47:27.152448","MEAN_MOTION":15.0919716,"ECCENTRICITY":0.00052059,"INCLINATION":98.0981,"RA_OF_ASC_NODE":61.9435,"ARG_OF_PERICENTER":212.2329,"MEAN_ANOMALY":147.8581,"EPHEMERIS_TYPE":0,"CLASSIFICATION_TYPE":"U","NORAD_CAT_ID":40049,"ELEMENT_SET_NO":999,"REV_AT_EPOCH":63724,"BSTAR":0.00046923352,"MEAN_MOTION_DOT":7.393e-5,"MEAN_MOTION_DDOT":0}]
